{
  "type": "FeatureCollection",
  "features": [
    {
      "type": "Feature",
      "properties": {
        "norad_id": 40010,
        "name": "KAZEOSAT 2",
        "group": "resource",
        "lat": -78.71238538200573,
        "lon": -113.88274411925963,
        "alt_km": 623.4050190977678,
        "timestamp": "2025-12-26T21:25:52.663484+00:00",
        "meta_object_name": "KAZEOSAT 2",
        "meta_object_id": "2014-033A",
        "meta_epoch": "2025-12-26T13:42:50.368320",
        "meta_mean_motion": 14.85188277,
        "meta_eccentricity": 0.0008827,
        "meta_inclination": 97.5496,
        "meta_ra_of_asc_node": 204.1715,
        "meta_arg_of_pericenter": 159.7719,
        "meta_mean_anomaly": 200.3848,
        "meta_ephemeris_type": 0,
        "meta_classification_type": "U",
        "meta_norad_cat_id": 40010,
        "meta_element_set_no": 999,
        "meta_rev_at_epoch": 62333,
        "meta_bstar": 3.1670951e-05,
        "meta_mean_motion_dot": 2.21e-06,
        "meta_mean_motion_ddot": 0,
        "tle_line1": "1 40010U 14033A   25360.57141630  .00000221  00000+0  31671-4 0  9995",
        "tle_line2": "2 40010  97.5496 204.1715 0008827 159.7719 200.3848 14.85188277623334"
      },
      "geometry": {
        "type": "Point",
        "coordinates": [
          -113.88274411925963,
          -78.71238538200573
        ]
      }
    },
    {
      "type": "Feature",
      "properties": {
        "norad_id": 40011,
        "name": "HODOYOSHI-4",
        "group": "resource",
        "lat": 54.85060849395551,
        "lon": 19.92395319623984,
        "alt_km": 585.6718430417686,
        "timestamp": "2025-12-26T21:25:52.663515+00:00",
        "meta_object_name": "HODOYOSHI-4",
        "meta_object_id": "2014-033B",
        "meta_epoch": "2025-12-26T14:24:59.037984",
        "meta_mean_motion": 14.87531185,
        "meta_eccentricity": 0.00242812,
        "meta_inclination": 97.5411,
        "meta_ra_of_asc_node": 188.8017,
        "meta_arg_of_pericenter": 154.6698,
        "meta_mean_anomaly": 205.5716,
        "meta_ephemeris_type": 0,
        "meta_classification_type": "U",
        "meta_norad_cat_id": 40011,
        "meta_element_set_no": 999,
        "meta_rev_at_epoch": 62314,
        "meta_bstar": 0.00029477291,
        "meta_mean_motion_dot": 2.637e-05,
        "meta_mean_motion_ddot": 0,
        "tle_line1": "1 40011U 14033B   25360.60068331  .00002637  00000+0  29477-3 0  9999",
        "tle_line2": "2 40011  97.5411 188.8017 0024281 154.6698 205.5716 14.87531185623149"
      },
      "geometry": {
        "type": "Point",
        "coordinates": [
          19.92395319623984,
          54.85060849395551
        ]
      }
    },
    {
      "type": "Feature",
      "properties": {
        "norad_id": 40013,
        "name": "DEIMOS-2",
        "group": "resource",
        "lat": -21.374354954912995,
        "lon": 53.228601419404505,
        "alt_km": 593.8403757115793,
        "timestamp": "2025-12-26T21:25:52.663528+00:00",
        "meta_object_name": "DEIMOS-2",
        "meta_object_id": "2014-033D",
        "meta_epoch": "2025-12-26T15:42:23.337792",
        "meta_mean_motion": 14.93031397,
        "meta_eccentricity": 0.00013833,
        "meta_inclination": 97.6048,
        "meta_ra_of_asc_node": 235.9954,
        "meta_arg_of_pericenter": 112.3436,
        "meta_mean_anomaly": 247.7931,
        "meta_ephemeris_type": 0,
        "meta_classification_type": "U",
        "meta_norad_cat_id": 40013,
        "meta_element_set_no": 999,
        "meta_rev_at_epoch": 61197,
        "meta_bstar": 0.0002391418,
        "meta_mean_motion_dot": 2.433e-05,
        "meta_mean_motion_ddot": 0,
        "tle_line1": "1 40013U 14033D   25360.65443678  .00002433  00000+0  23914-3 0  9991",
        "tle_line2": "2 40013  97.6048 235.9954 0001383 112.3436 247.7931 14.93031397611973"
      },
      "geometry": {
        "type": "Point",
        "coordinates": [
          53.228601419404505,
          -21.374354954912995
        ]
      }
    },
    {
      "type": "Feature",
      "properties": {
        "norad_id": 40015,
        "name": "HODOYOSHI-3",
        "group": "resource",
        "lat": -81.31401914542644,
        "lon": -132.6755895802634,
        "alt_km": 615.1266709121737,
        "timestamp": "2025-12-26T21:25:52.663540+00:00",
        "meta_object_name": "HODOYOSHI-3",
        "meta_object_id": "2014-033F",
        "meta_epoch": "2025-12-26T13:43:54.549696",
        "meta_mean_motion": 14.84853471,
        "meta_eccentricity": 0.00326302,
        "meta_inclination": 97.6208,
        "meta_ra_of_asc_node": 165.8066,
        "meta_arg_of_pericenter": 201.0255,
        "meta_mean_anomaly": 158.9621,
        "meta_ephemeris_type": 0,
        "meta_classification_type": "U",
        "meta_norad_cat_id": 40015,
        "meta_element_set_no": 999,
        "meta_rev_at_epoch": 62200,
        "meta_bstar": 0.00020956895,
        "meta_mean_motion_dot": 1.745e-05,
        "meta_mean_motion_ddot": 0,
        "tle_line1": "1 40015U 14033F   25360.57215914  .00001745  00000+0  20957-3 0  9993",
        "tle_line2": "2 40015  97.6208 165.8066 0032630 201.0255 158.9621 14.84853471622002"
      },
      "geometry": {
        "type": "Point",
        "coordinates": [
          -132.6755895802634,
          -81.31401914542644
        ]
      }
    },
    {
      "type": "Feature",
      "properties": {
        "norad_id": 40053,
        "name": "SPOT 7",
        "group": "resource",
        "lat": -31.314599070017707,
        "lon": -122.32223444794302,
        "alt_km": 697.5098968305119,
        "timestamp": "2025-12-26T21:25:52.663550+00:00",
        "meta_object_name": "SPOT 7",
        "meta_object_id": "2014-034A",
        "meta_epoch": "2025-12-26T15:32:02.330880",
        "meta_mean_motion": 14.60752231,
        "meta_eccentricity": 0.00015223,
        "meta_inclination": 98.0883,
        "meta_ra_of_asc_node": 62.4008,
        "meta_arg_of_pericenter": 79.8685,
        "meta_mean_anomaly": 280.2687,
        "meta_ephemeris_type": 0,
        "meta_classification_type": "U",
        "meta_norad_cat_id": 40053,
        "meta_element_set_no": 999,
        "meta_rev_at_epoch": 61194,
        "meta_bstar": 0.00018634431,
        "meta_mean_motion_dot": 8.63e-06,
        "meta_mean_motion_ddot": 0,
        "tle_line1": "1 40053U 14034A   25360.64724920  .00000863  00000+0  18634-3 0  9995",
        "tle_line2": "2 40053  98.0883  62.4008 0001522  79.8685 280.2687 14.60752231611948"
      },
      "geometry": {
        "type": "Point",
        "coordinates": [
          -122.32223444794302,
          -31.314599070017707
        ]
      }
    },
    {
      "type": "Feature",
      "properties": {
        "norad_id": 40072,
        "name": "SKYSAT-B",
        "group": "resource",
        "lat": 59.582257496334606,
        "lon": -69.16250068423999,
        "alt_km": 597.2820832506068,
        "timestamp": "2025-12-26T21:25:52.663560+00:00",
        "meta_object_name": "SKYSAT-B",
        "meta_object_id": "2014-037D",
        "meta_epoch": "2025-12-26T14:42:05.131296",
        "meta_mean_motion": 14.87376812,
        "meta_eccentricity": 0.0006873,
        "meta_inclination": 98.3629,
        "meta_ra_of_asc_node": 305.0527,
        "meta_arg_of_pericenter": 111.8235,
        "meta_mean_anomaly": 248.3711,
        "meta_ephemeris_type": 0,
        "meta_classification_type": "U",
        "meta_norad_cat_id": 40072,
        "meta_element_set_no": 999,
        "meta_rev_at_epoch": 62030,
        "meta_bstar": 0.0002215646,
        "meta_mean_motion_dot": 1.942e-05,
        "meta_mean_motion_ddot": 0,
        "tle_line1": "1 40072U 14037D   25360.61255939  .00001942  00000+0  22156-3 0  9998",
        "tle_line2": "2 40072  98.3629 305.0527 0006873 111.8235 248.3711 14.87376812620303"
      },
      "geometry": {
        "type": "Point",
        "coordinates": [
          -69.16250068423999,
          59.582257496334606
        ]
      }
    },
    {
      "type": "Feature",
      "properties": {
        "norad_id": 40115,
        "name": "WORLDVIEW-3 (WV-3)",
        "group": "resource",
        "lat": -10.208895625870612,
        "lon": -108.42777704550318,
        "alt_km": 618.1989853393961,
        "timestamp": "2025-12-26T21:25:52.663570+00:00",
        "meta_object_name": "WORLDVIEW-3 (WV-3)",
        "meta_object_id": "2014-048A",
        "meta_epoch": "2025-12-26T14:06:27.035424",
        "meta_mean_motion": 14.84679252,
        "meta_eccentricity": 0.0002102,
        "meta_inclination": 97.8763,
        "meta_ra_of_asc_node": 72.6993,
        "meta_arg_of_pericenter": 127.2984,
        "meta_mean_anomaly": 232.8423,
        "meta_ephemeris_type": 0,
        "meta_classification_type": "U",
        "meta_norad_cat_id": 40115,
        "meta_element_set_no": 999,
        "meta_rev_at_epoch": 61629,
        "meta_bstar": 0.00014327207,
        "meta_mean_motion_dot": 1.159e-05,
        "meta_mean_motion_ddot": 0,
        "tle_line1": "1 40115U 14048A   25360.58781291  .00001159  00000+0  14327-3 0  9990",
        "tle_line2": "2 40115  97.8763  72.6993 0002102 127.2984 232.8423 14.84679252616293"
      },
      "geometry": {
        "type": "Point",
        "coordinates": [
          -108.42777704550318,
          -10.208895625870612
        ]
      }
    }
  ]
}